[{"OBJECT_NAME":"BRO-11","OBJECT_ID":"2023-174J","EPOCH":"2026-03-09T23:01:09.890400","MEAN_MOTION":15.26267731,"ECCENTRICITY":0.00104518,"INCLINATION":97.3961,"RA_OF_ASC_NODE":146.7679,"ARG_OF_PERICENTER":189.9892,"MEAN_ANOMALY":170.1141,"EPHEMERIS_TYPE":0,"CLASSIFICATION_TYPE":"U","NORAD_CAT_ID":58264,"ELEMENT_SET_NO":999,"REV_AT_EPOCH":12961,"BSTAR":0.00032296323,"MEAN_MOTION_DOT":8.313e-5,"MEAN_MOTION_DDOT":0},{"OBJECT_NAME":"STARLINK-31957","OBJECT_ID":"2024-106E","EPOCH":"2026-03-09T03:26:56.734080","MEAN_MOTION":15.27570718,"ECCENTRICITY":0.00013933,"INCLINATION":43.0018,"RA_OF_ASC_NODE":335.2378,"ARG_OF_PERICENTER":274.7121,"MEAN_ANOMALY":85.3571,"EPHEMERIS_TYPE":0,"CLASSIFICATION_TYPE":"U","NORAD_CAT_ID":59926,"ELEMENT_SET_NO":999,"REV_AT_EPOCH":10049,"BSTAR":-3.6464619e-5,"MEAN_MOTION_DOT":-1.265e-5,"MEAN_MOTION_DDOT":0}]
